[
    {
        "CCSDS_OMM_VERS": "3.0",
        "COMMENT": "GENERATED VIA SPACE-TRACK.ORG API",
        "CREATION_DATE": "2025-04-14T03:05:54",
        "ORIGINATOR": "18 SPCS",
        "OBJECT_NAME": "BEIDOU 3 IGSO-3",
        "OBJECT_ID": "2019-073A",
        "CENTER_NAME": "EARTH",
        "REF_FRAME": "TEME",
        "TIME_SYSTEM": "UTC",
        "MEAN_ELEMENT_THEORY": "SGP4",
        "EPOCH": "2025-04-12T21:37:48.584064",
        "MEAN_MOTION": "1.00265230",
        "ECCENTRICITY": "0.00430540",
        "INCLINATION": "55.5387",
        "RA_OF_ASC_NODE": "285.5303",
        "ARG_OF_PERICENTER": "181.6166",
        "MEAN_ANOMALY": "178.3050",
        "EPHEMERIS_TYPE": "0",
        "CLASSIFICATION_TYPE": "U",
        "NORAD_CAT_ID": "44709",
        "ELEMENT_SET_NO": "999",
        "REV_AT_EPOCH": "2014",
        "BSTAR": "0.00000000000000",
        "MEAN_MOTION_DOT": "-0.00000182",
        "MEAN_MOTION_DDOT": "0.0000000000000",
        "SEMIMAJOR_AXIS": "42166.570",
        "PERIOD": "1436.191",
        "APOAPSIS": "35969.979",
        "PERIAPSIS": "35606.891",
        "OBJECT_TYPE": "PAYLOAD",
        "RCS_SIZE": "LARGE",
        "COUNTRY_CODE": "PRC",
        "LAUNCH_DATE": "2019-11-04",
        "SITE": "XSC",
        "DECAY_DATE": null,
        "FILE": "4701263",
        "GP_ID": "285539747",
        "TLE_LINE0": "0 BEIDOU 3 IGSO-3",
        "TLE_LINE1": "1 44709U 19073A   25102.90125676 -.00000182  00000-0  00000-0 0  9992",
        "TLE_LINE2": "2 44709  55.5387 285.5303 0043054 181.6166 178.3050  1.00265230 20140"
    }
]